EUTELSAT 139 WEST A     
1 28187U 04008A   26013.27691060  .00000116  00000+0  00000+0 0  9997
2 28187   5.4375  73.8863 0001782 276.3135  83.0396  1.00273276 79791
EUTELSAT 174A           
1 28924U 05052A   26013.47822590  .00000025  00000+0  00000+0 0  9991
2 28924   3.8271  78.4752 0005957 220.1856 160.4925  1.00275141 50789
EUTELSAT 33F            
1 29270U 06032A   26013.52511226  .00000173  00000+0  00000+0 0  9996
2 29270   1.2627  84.0806 0003428 215.4106  35.6073  1.00272168 45754
EUTELSAT HOTBIRD 13C    
1 33459U 08065A   26013.50855882 -.00000266  00000+0  00000+0 0  9999
2 33459   2.5532  81.0709 0003009 219.8124 304.8713  1.00272177 45795
EUTELSAT 36B            
1 36101U 09065A   26013.52849227  .00000131  00000+0  00000+0 0  9995
2 36101   0.1025  66.0566 0005367 229.7652  57.9361  1.00273915 59153
EUTELSAT KA-SAT 9A      
1 37258U 10069A   26013.37761791  .00000080  00000+0  00000+0 0  9990
2 37258   0.0505 341.7104 0001813 192.2692  83.7990  1.00267988 42453
EUTELSAT 7 WEST A       
1 37816U 11051A   26013.37415122 -.00000041  00000+0  00000+0 0  9994
2 37816   0.0615 357.5889 0004190 240.4637   2.1744  1.00271678 52326
EUTELSAT 16A            
1 37836U 11057A   26013.52155890  .00000123  00000+0  00000+0 0  9992
2 37836   0.0564 345.7678 0005643 308.6489  22.3433  1.00274722  5771
